[{"OBJECT_ID":"2012-002C","OBJECT_NAME":"FENGYUN 2F AKM","NORAD_CAT_ID":"38072","OBJECT_TYPE":"ROCKET BODY","PERIOD":"1448.717","INCLINATION":"1.0965","APOGEE":"36285.313","PERIGEE":"35781.220","ECCENTRICITY":"0.0059429","MEAN_MOTION":"0.99398268","TLE_LINE1":"1 38072U 12002C   16239.41160662 -.00000197  00000-0  00000+0 0  9999","TLE_LINE2":"2 38072   1.0965  75.2120 0059429 128.1438  92.5013  0.99398268 16614","LAUNCH_DATE":"2012-01-13","LAUNCH_SITE":"Xichang Space Center, China","OWNER":"PEOPLES REPUBLIC OF CHINA","ORBIT_TYPE":"Geosynchronous","OPERATIONAL_STATUS":"N/A, derelict rocket body","satInfo":{"lng":138.04013045172704,"lat":3.1394116839108066,"elevation":-5.474790102300322,"azimuth":176.95986954827293,"range":42394.83809652073,"height":35886.6730512861,"velocity":3.0763547586367683},"x":200,"y":213,"dx":-2.2876183384330027,"dy":2.056881362318235},{"OBJECT_ID":"2012-007A","OBJECT_NAME":"SES 4","NORAD_CAT_ID":"38087","OBJECT_TYPE":"PAYLOAD","PERIOD":"1436.085","INCLINATION":"0.0189","APOGEE":"35796.472","PERIGEE":"35776.267","ECCENTRICITY":"0.0002396","MEAN_MOTION":"1.00272595","TLE_LINE1":"1 38087U 12007A   16239.38510905 -.00000197  00000-0  00000+0 0  9995","TLE_LINE2":"2 38087   0.0189 353.3740 0002396 168.6947 289.6247  1.00272595 16570","LAUNCH_DATE":"2012-02-14","LAUNCH_SITE":"TYURATAM MISSILE AND SPACE COMPLEX","OWNER":"SOCIÉTÉ EUROPÉENNE DES SATELLITES","ORBIT_TYPE":"Geosynchronous","OPERATIONAL_STATUS":"Operational","satInfo":{"lng":-80.90324423327473,"lat":-0.1893071136510582,"elevation":-8.763472637579227,"azimuth":35.90324423327474,"range":42638.4586851347,"height":35762.77784775701,"velocity":3.075355649069866},"x":-300,"y":-45,"dx":0.4862203620014954,"dy":-3.0366761644668454},{"OBJECT_ID":"2012-008A","OBJECT_NAME":"BEIDOU G5","NORAD_CAT_ID":"38091","OBJECT_TYPE":"PAYLOAD","PERIOD":"1436.096","INCLINATION":"1.7378","APOGEE":"35798.963","PERIGEE":"35774.196","ECCENTRICITY":"0.0002937","MEAN_MOTION":"1.00271845","TLE_LINE1":"1 38091U 12008A   16239.11875233  .00000029  00000-0  00000+0 0  9993","TLE_LINE2":"2 38091   1.7378  50.0749 0002937 172.6257 213.4979  1.00271845 16566","LAUNCH_DATE":"2012-02-24","LAUNCH_SITE":"Xichang Space Center, China","OWNER":"PEOPLES REPUBLIC OF CHINA","ORBIT_TYPE":"Geosynchronous","OPERATIONAL_STATUS":"Operational","satInfo":{"lng":91.65428864530264,"lat":3.443995326112962,"elevation":-5.193962510142038,"azimuth":223.34571135469736,"range":42267.70656686014,"height":35792.098746662465,"velocity":3.07427643909287},"x":300,"y":8,"dx":-0.08875058630119197,"dy":3.072995111840032},{"OBJECT_ID":"2012-011A","OBJECT_NAME":"INTELSAT 22","NORAD_CAT_ID":"38098","OBJECT_TYPE":"PAYLOAD","PERIOD":"1436.137","INCLINATION":"0.0343","APOGEE":"35795.318","PERIGEE":"35779.464","ECCENTRICITY":"0.000188","MEAN_MOTION":"1.0026895","TLE_LINE1":"1 38098U 12011A   16238.11062819  .00000000  00000-0  10000-3 0  9995","TLE_LINE2":"2 38098   0.0343  65.6446 0001880 103.1448 276.9509  1.00268950 16128","LAUNCH_DATE":"2012-03-25","LAUNCH_SITE":"TYURATAM MISSILE AND SPACE COMPLEX","OWNER":"INTERNATIONAL TELECOMMUNICATIONS SATELLITE ORGANIZATION (INTELSAT)","ORBIT_TYPE":"Geosynchronous","OPERATIONAL_STATUS":"Operational","satInfo":{"lng":78.62653722288835,"lat":1.8147375477814807,"elevation":-6.797615492067978,"azimuth":236.37346277711168,"range":42439.721481942266,"height":35784.376997812404,"velocity":3.0748272377683903},"x":294,"y":-57,"dx":0.6063660626023523,"dy":3.014445677109891},{"OBJECT_ID":"2012-012A","OBJECT_NAME":"COSMOS 2479","NORAD_CAT_ID":"38101","OBJECT_TYPE":"PAYLOAD","PERIOD":"1435.318","INCLINATION":"1.0844","APOGEE":"35786.715","PERIGEE":"35755.988","ECCENTRICITY":"0.0003645","MEAN_MOTION":"1.00326192","TLE_LINE1":"1 38101U 12012A   16239.07331050  .00000016  00000-0  00000+0 0  9995","TLE_LINE2":"2 38101   1.0844  61.1857 0003645 189.5743 115.6892  1.00326192 16143","LAUNCH_DATE":"2012-03-30","LAUNCH_SITE":"TYURATAM MISSILE AND SPACE COMPLEX","OWNER":"COMMONWEALTH OF INDEPENDENT STATES","ORBIT_TYPE":"Geosynchronous","OPERATIONAL_STATUS":"Nonoperational","satInfo":{"lng":-125.52490505149726,"lat":-1.985620043250593,"elevation":-10.518152582204545,"azimuth":80.52490505149724,"range":42810.44676589262,"height":35738.234018218296,"velocity":3.07702434378661},"x":-248,"y":165,"dx":-1.7879258467952008,"dy":-2.5042763383095488},{"OBJECT_ID":"2012-012D","OBJECT_NAME":"SL-12 R/B(2)","NORAD_CAT_ID":"38104","OBJECT_TYPE":"ROCKET BODY","PERIOD":"1435.458","INCLINATION":"1.0556","APOGEE":"35831.269","PERIGEE":"35716.935","ECCENTRICITY":"0.0013562","MEAN_MOTION":"1.00316371","TLE_LINE1":"1 38104U 12012D   16238.51774998 +.00000085 +00000-0 +00000-0 0  9995","TLE_LINE2":"2 38104 001.0556 060.8260 0013562 222.0632 068.5336 01.00316371016135","LAUNCH_DATE":"2012-03-30","LAUNCH_SITE":"TYURATAM MISSILE AND SPACE COMPLEX","OWNER":"COMMONWEALTH OF INDEPENDENT STATES","ORBIT_TYPE":"Geosynchronous","OPERATIONAL_STATUS":"N/A, derelict rocket body","satInfo":{"lng":26.51786305334831,"lat":0.6726202079422027,"elevation":-7.915748384389314,"azimuth":288.48213694665174,"range":42570.07260837121,"height":35789.21561594627,"velocity":3.073713828038295},"x":133,"y":-256,"dx":2.750344402315168,"dy":1.3723419272642845},{"OBJECT_ID":"2012-013A","OBJECT_NAME":"APSTAR 7","NORAD_CAT_ID":"38107","OBJECT_TYPE":"PAYLOAD","PERIOD":"1436.093","INCLINATION":"0.0322","APOGEE":"35797.599","PERIGEE":"35775.462","ECCENTRICITY":"0.0002625","MEAN_MOTION":"1.0027202","TLE_LINE1":"1 38107U 12013A   16238.93048515 -.00000130 +00000-0 +00000-0 0  9996","TLE_LINE2":"2 38107 000.0322 083.2651 0002625 063.6534 239.1767 01.00272020016258","LAUNCH_DATE":"2012-03-31","LAUNCH_SITE":"Xichang Space Center, China","OWNER":"PEOPLES REPUBLIC OF CHINA","ORBIT_TYPE":"Geosynchronous","OPERATIONAL_STATUS":"Operational","satInfo":{"lng":74.03978534073626,"lat":1.4202382722272366,"elevation":-7.185234024611754,"azimuth":240.96021465926376,"range":42479.6949201801,"height":35780.90179908853,"velocity":3.0750858295296633},"x":288,"y":-79,"dx":0.8455557463936433,"dy":2.956550073770919},{"OBJECT_ID":"2012-016A","OBJECT_NAME":"YAHSAT 1B","NORAD_CAT_ID":"38245","OBJECT_TYPE":"PAYLOAD","PERIOD":"1436.075","INCLINATION":"0.0148","APOGEE":"35787.472","PERIGEE":"35784.892","ECCENTRICITY":"3.06e-05","MEAN_MOTION":"1.00273263","TLE_LINE1":"1 38245U 12016A   16239.18088193  .00000098  00000-0  00000+0 0  9997","TLE_LINE2":"2 38245   0.0148 216.7194 0000306 303.4664 287.3882  1.00273263 16001","LAUNCH_DATE":"2012-04-23","LAUNCH_SITE":"TYURATAM MISSILE AND SPACE COMPLEX","OWNER":"UNITED ARAB EMIRATES","ORBIT_TYPE":"Geosynchronous","OPERATIONAL_STATUS":"Operational","satInfo":{"lng":100.27547526663156,"lat":-1.1795397271070074,"elevation":-9.725794440522327,"azimuth":214.72452473336844,"range":42762.875082731065,"height":35779.05346677936,"velocity":3.074995276492481},"x":295,"y":51,"dx":-0.5485209144853416,"dy":3.025676908862417},{"OBJECT_ID":"2012-023A","OBJECT_NAME":"JCSAT 13","NORAD_CAT_ID":"38331","OBJECT_TYPE":"PAYLOAD","PERIOD":"1436.147","INCLINATION":"0.0199","APOGEE":"35793.631","PERIGEE":"35781.529","ECCENTRICITY":"0.0001435","MEAN_MOTION":"1.00268277","TLE_LINE1":"1 38331U 12023A   16238.72670593 -.00000384 +00000-0 +00000-0 0  9991","TLE_LINE2":"2 38331 000.0199 110.9749 0001435 055.2623 193.7668 01.00268277015601","LAUNCH_DATE":"2012-05-15","LAUNCH_SITE":"FRENCH GUIANA","OWNER":"JAPAN","ORBIT_TYPE":"Geosynchronous","OPERATIONAL_STATUS":"Operational","satInfo":{"lng":88.08639081300768,"lat":0.906033569587103,"elevation":-7.682987834724578,"azimuth":226.91360918699232,"range":42565.63672047454,"height":35810.654808595726,"velocity":3.0738992329251165},"x":300,"y":-10,"dx":0.10264540141017112,"dy":3.0721849579325404},{"OBJECT_ID":"2012-023B","OBJECT_NAME":"VINASAT 2","NORAD_CAT_ID":"38332","OBJECT_TYPE":"PAYLOAD","PERIOD":"1436.124","INCLINATION":"0.0469","APOGEE":"35795.004","PERIGEE":"35779.260","ECCENTRICITY":"0.0001867","MEAN_MOTION":"1.00269875","TLE_LINE1":"1 38332U 12023B   16238.84925477 -.00000357 +00000-0 +00000-0 0  9999","TLE_LINE2":"2 38332 000.0469 291.7315 0001867 251.6417 228.7205 01.00269875010731","LAUNCH_DATE":"2012-05-15","LAUNCH_SITE":"FRENCH GUIANA","OWNER":"VIETNAM","ORBIT_TYPE":"Geosynchronous","OPERATIONAL_STATUS":"Operational","satInfo":{"lng":126.44445716439589,"lat":-1.9005116242021285,"elevation":-10.424818951863745,"azimuth":188.55554283560411,"range":42854.03635579345,"height":35791.68892036118,"velocity":3.074693278472058},"x":241,"y":169,"dx":-1.8265007701708829,"dy":2.4733850677252875},{"OBJECT_ID":"2012-023C","OBJECT_NAME":"ARIANE 5 R/B","NORAD_CAT_ID":"38333","OBJECT_TYPE":"ROCKET BODY","PERIOD":"607.246","INCLINATION":"1.6191","APOGEE":"34499.620","PERIGEE":"252.096","ECCENTRICITY":"0.7208793","MEAN_MOTION":"2.3713618","TLE_LINE1":"1 38333U 12023C   16238.69428862 +.00003248 +00000-0 +10000-2 0  9993","TLE_LINE2":"2 38333 001.6191 097.6806 7208793 053.7329 353.2781 02.37136180036426","LAUNCH_DATE":"2012-05-15","LAUNCH_SITE":"FRENCH GUIANA","OWNER":"FRANCE","ORBIT_TYPE":"Highly Elliptical Orbit","OPERATIONAL_STATUS":"N/A, derelict rocket body","satInfo":{"lng":64.45281225934332,"lat":1.806459448713819,"elevation":-7.48691773047557,"azimuth":250.54718774065668,"range":39354.25155357235,"height":32659.985571129062,"velocity":1.8009179782617062},"x":246,"y":-113,"dx":0.7766536278509185,"dy":1.6248429791128243}]